[{"OBJECT_NAME":"STARLINK-35405","OBJECT_ID":"2025-259U","EPOCH":"2026-03-09T23:11:39.666048","MEAN_MOTION":15.27602598,"ECCENTRICITY":0.00023723,"INCLINATION":42.9999,"RA_OF_ASC_NODE":272.7787,"ARG_OF_PERICENTER":241.8865,"MEAN_ANOMALY":118.1747,"EPHEMERIS_TYPE":0,"CLASSIFICATION_TYPE":"U","NORAD_CAT_ID":66440,"ELEMENT_SET_NO":999,"REV_AT_EPOCH":1953,"BSTAR":0.00060263064,"MEAN_MOTION_DOT":0.0001637,"MEAN_MOTION_DDOT":0},{"OBJECT_NAME":"NOAA 17 DEB","OBJECT_ID":"2002-032AF","EPOCH":"2026-03-09T00:24:06.552000","MEAN_MOTION":15.25501717,"ECCENTRICITY":0.00030847,"INCLINATION":98.6472,"RA_OF_ASC_NODE":92.5947,"ARG_OF_PERICENTER":165.9893,"MEAN_ANOMALY":194.1428,"EPHEMERIS_TYPE":0,"CLASSIFICATION_TYPE":"U","NORAD_CAT_ID":48614,"ELEMENT_SET_NO":999,"REV_AT_EPOCH":26420,"BSTAR":0.01090047,"MEAN_MOTION_DOT":0.00286783,"MEAN_MOTION_DDOT":0}]
